COSMOS 2419 (714)       
1 28915U 05050A   17134.41343258 -.00000022  00000-0  00000-0 0  9996
2 28915  65.4804  66.9903 0017475 349.7625 101.1019  2.13110239 88615
COSMOS 2425 (716)       
1 29670U 06062A   17134.02294135 -.00000018  00000-0  10000-3 0  9994
2 29670  65.4779 306.0135 0021370 351.7539 211.9832  2.13104827 80808
COSMOS 2426 (717)       
1 29671U 06062B   17134.46151171 -.00000015  00000-0  10000-3 0  9992
2 29671  65.4975 306.0877 0017524 157.7337 241.0437  2.13102935 80821
COSMOS 2424 (715)       
1 29672U 06062C   17134.42210141 -.00000015  00000-0  10000-3 0  9992
2 29672  65.4799 306.0111 0016944 156.1509  27.7660  2.13102157 80818
COSMOS 2433 (720)       
1 32275U 07052A   17134.37801115 -.00000023  00000-0  10000-3 0  9995
2 32275  65.4963  66.7680 0004088 295.7647  12.5125  2.13104599 74323
COSMOS 2432 (719)       
1 32276U 07052B   17134.27477285 -.00000023  00000-0  10000-3 0  9992
2 32276  65.5088  66.8420 0013652 334.8183 207.2060  2.13104026 74329
COSMOS 2434 (721)       
1 32393U 07065A   17134.32299286 -.00000016  00000-0  00000-0 0  9993
2 32393  65.0953 305.1680 0006002  98.2417  57.5841  2.13102823 73037
COSMOS 2436 (723)       
1 32395U 07065C   17134.51686631 -.00000015  00000-0  10000-3 0  9993
2 32395  65.1046 305.2076 0015535   8.2617 344.8173  2.13104219 72969
COSMOS 2443 (725)       
1 33379U 08046B   17134.34248532 -.00000024  00000-0  00000-0 0  9997
2 33379  65.4251  66.1560 0011272 183.5578 358.5823  2.13099665 67181
COSMOS 2456 (730)       
1 36111U 09070A   17134.33229609  .00000048  00000-0  00000-0 0  9990
2 36111  64.1784 184.7340 0005625 302.4819  31.4587  2.13102890 57697
COSMOS 2457 (733)       
1 36112U 09070B   17134.33616002  .00000048  00000-0  00000-0 0  9998
2 36112  64.1605 184.6541 0006270 182.7104 282.9088  2.13101543 57700
COSMOS 2458 (734)       
1 36113U 09070C   17134.44836938  .00000048  00000-0  10000-3 0  9997
2 36113  64.1664 184.6598 0001985 312.8105 286.8394  2.13102096 57700
COSMOS 2459 (731)       
1 36400U 10007A   17134.27022978 -.00000025  00000-0  10000-3 0  9996
2 36400  65.4045  65.8818 0029657 351.0640  96.8854  2.13102218 56059
COSMOS 2461 (735)       
1 36401U 10007B   17134.41037587 -.00000024  00000-0  10000-3 0  9994
2 36401  65.3977  65.8556 0006647  47.2436  58.8204  2.13102294 56054
COSMOS 2460 (732)       
1 36402U 10007C   17134.39516524 -.00000024  00000-0  10000-3 0  9995
2 36402  65.3879  65.8284 0002347 337.4454 158.2951  2.13101671 56053
COSMOS 2465 (737)       
1 37138U 10041B   17134.29332609 -.00000018  00000-0  00000-0 0  9998
2 37138  64.6945 305.1734 0035359 168.8516   8.8776  2.13104159 52123
COSMOS 2464 (736)       
1 37139U 10041C   17134.08775074 -.00000019  00000-0  00000-0 0  9994
2 37139  64.7001 305.1808 0024040  17.1907 185.9077  2.13102576 52116
COSMOS 2471 (701K)      
1 37372U 11009A   17134.37824208 -.00000024  00000-0  00000-0 0  9990
2 37372  65.3869  65.7772 0007977 246.4012  11.7891  2.13107588 48323
COSMOS 2474 (742)       
1 37829U 11055A   17134.37843244  .00000048  00000-0  00000-0 0  9994
2 37829  64.5027 185.2833 0009860 252.4142 336.8648  2.13101929 43696
COSMOS 2476 (744)       
1 37867U 11064A   17134.42009346  .00000047  00000-0  00000-0 0  9998
2 37867  64.4818 185.3539 0019291 246.2160  60.9611  2.13102201 43047
COSMOS 2477 (745)       
1 37868U 11064B   17134.35767378  .00000048  00000-0  00000-0 0  9998
2 37868  64.4908 185.4004 0016841 247.2435 191.1792  2.13101790 43005
COSMOS 2475 (743)       
1 37869U 11064C   17134.43516139  .00000047  00000-0  00000-0 0  9994
2 37869  64.4987 185.3894 0021923 271.5633 182.6765  2.13101937 43015
COSMOS 2485 (747)       
1 39155U 13019A   17134.38738399  .00000048  00000-0  00000-0 0  9995
2 39155  64.6520 185.3771 0019346 240.8467  86.2623  2.13101983 31519
COSMOS 2492 (754)       
1 39620U 14012A   17134.52290470 -.00000024  00000-0  10000-3 0  9994
2 39620  65.2780  65.7657 0017166 331.6506 133.5119  2.13103376 24477
COSMOS 2500 (755)       
1 40001U 14032A   17133.86105648 -.00000028  00000-0  00000-0 0  9999
2 40001  65.2175  65.7886 0005006 229.6564 310.8569  2.13102810 22675
COSMOS 2501 (702K)      
1 40315U 14075A   17134.25951181 -.00000019  00000-0  00000-0 0  9999
2 40315  64.4271 306.5283 0013945 204.3512  88.3440  2.13098476 19080
COSMOS 2514 (751)       
1 41330U 16008A   17134.44704597 -.00000024  00000-0  00000-0 0  9999
2 41330  65.0193  65.9210 0008390 230.3189 219.6523  2.13103366  9851
COSMOS 2516 (753)       
1 41554U 16032A   17134.29713061 -.00000018  00000-0  00000-0 0  9996
2 41554  64.6488 306.2820 0009973 214.4171  13.3247  2.13101490  7453
